HAWK-5A                 
1 52757U 22057AB  26195.57695112  .00010648  00000+0  17674-3 0  9997
2 52757  97.6618 356.2174 0003400 340.6899  19.4223 15.52309435230596
HAWK-6B                 
1 55324U 23011A   26195.39510780  .00002441  00000+0  10934-3 0  9992
2 55324  40.4968 193.3478 0004076 236.2544 123.7877 15.23148645191993
HAWK-6C                 
1 55326U 23011C   26195.39447733  .00002456  00000+0  10994-3 0  9993
2 55326  40.4960 190.1873 0004580 229.0104 131.0309 15.23150953192003
HAWK-6A                 
1 55327U 23011D   26195.39451434  .00002530  00000+0  11301-3 0  9993
2 55327  40.4969 191.8141 0004119 226.4695 133.5773 15.23150323192006
HAWK-7A                 
1 56191U 23054P   26195.62403107  .00003120  00000+0  11819-3 0  9990
2 56191  97.2666  82.2641 0001468 336.7986  23.3187 15.27628792181210
HAWK-7B                 
1 56193U 23054R   26195.62396160  .00003156  00000+0  11953-3 0  9990
2 56193  97.2693  80.5376 0001383  18.3304 341.7985 15.27627135181214
HAWK-7C                 
1 56200U 23054Y   26195.62383921  .00003019  00000+0  11444-3 0  9993
2 56200  97.2667  81.2978 0000989 357.9422   2.1813 15.27629763181211
