OBJECT_NAME,OBJECT_ID,EPOCH,MEAN_MOTION,ECCENTRICITY,INCLINATION,RA_OF_ASC_NODE,ARG_OF_PERICENTER,MEAN_ANOMALY,EPHEMERIS_TYPE,CLASSIFICATION_TYPE,NORAD_CAT_ID,ELEMENT_SET_NO,REV_AT_EPOCH,BSTAR,MEAN_MOTION_DOT,MEAN_MOTION_DDOT
HAWK-5A,2022-057AB,2026-07-14T13:50:48.576768,15.52309435,.00034009,97.6618,356.2174,340.6899,19.4223,0,U,52757,999,23059,.17674244E-3,.10648E-3,0
HAWK-6B,2023-011A,2026-07-14T09:28:57.313920,15.23148645,.00040761,40.4968,193.3478,236.2544,123.7877,0,U,55324,999,19199,.10934345E-3,.2441E-4,0
HAWK-6C,2023-011C,2026-07-14T09:28:02.841312,15.23150953,.00045801,40.4960,190.1873,229.0104,131.0309,0,U,55326,999,19200,.10994346E-3,.2456E-4,0
HAWK-6A,2023-011D,2026-07-14T09:28:06.038976,15.23150323,.00041197,40.4969,191.8141,226.4695,133.5773,0,U,55327,999,19200,.11301398E-3,.253E-4,0
HAWK-7A,2023-054P,2026-07-14T14:58:36.284448,15.27628792,.00014682,97.2666,82.2641,336.7986,23.3187,0,U,56191,999,18121,.11818515E-3,.312E-4,0
HAWK-7B,2023-054R,2026-07-14T14:58:30.282240,15.27627135,.00013835,97.2693,80.5376,18.3304,341.7985,0,U,56193,999,18121,.11952682E-3,.3156E-4,0
HAWK-7C,2023-054Y,2026-07-14T14:58:19.707744,15.27629763,.00009892,97.2667,81.2978,357.9422,2.1813,0,U,56200,999,18121,.11443554E-3,.3019E-4,0
